id,name,address,website,phone_number,latitude,longitude
0,LOGOTHERAPIA D.O.O.,"Ul. Marijana Derenčina 27, 10000, Zagreb",logotherapia.hr,01 4618 600,45.8107543,15.9221728
1,LOGOKOR d.o.o.,"Medulićeva ul. 14/3, 10000, Zagreb",logokor.hr,01 4610 261,45.8107543,15.9221728
2,Ruzicasti Oblak Logopedski Kabinet,"Prisavlje 10, 10000, Zagreb",ruzicastioblak.hr,,45.8107543,15.9221728
3,"Logovježbaonica - logopedski kabinet, Logoped Zagreb","Ul. Damira Tomljanovića 9, 10020, Zagreb",logovjezbaonica.hr,099 209 8333,45.8107543,15.9221728
4,Kraljev govor,"Importanne Galleria, Trg Drage Iblera 10, 10000, Zagreb",,,45.8107543,15.9221728
5,Logopedski Centar Govorni Oblačić,"Vranovinski Ogranak I 4, 10000, Zagreb",logopedski-centar.com,095 299 0299,45.8107543,15.9221728
6,Logopedski kabinet Smjehuljica,"Bosutska ul. 9, 10000, Zagreb",wordpress.com,099 800 8568,45.8107543,15.9221728
7,Logopedski kabinet Marijana Sesjak,"Hercegovačka ul. 5, 10000, Zagreb",lkms.hr,098 947 1572,45.8141963,15.8838603
8,Kod logopeda,"Mihovljanska ul. 7, 10000, Zagreb",,099 565 9932,45.8141963,15.8838603
9,Verbum sanum,"Jarun 43, 10000, Zagreb",verbum-sanum.hr,01 3639 810,45.8141963,15.8838603
10,LogopedAna,"Ul. Božidara Magovca 107, 10000, Zagreb",business.site,095 362 5750,45.7695751,15.9274117
11,Jezik i govor - Logopedska dijagnostika i terapija,"Vajdin vijenac 2, 10000, Zagreb",,01 6600 156,45.7695751,15.9274117
12,Udruga PRO SANO,"Ozaljska ul. 13, 10000, Zagreb",prosano.hr,098 841 680,45.7994947,15.8794918
13,"Majić Kristina, logopedski kabinet","Lopatinečka ul. 13, 10000, Zagreb",logopedskikabinet.com,01 3817 428,45.7929491,15.8410025
14,Naša priča,"Lermanova ul. 65, 10090, Zagreb",,092 194 1115,45.7929491,15.8410025
15,"LOGOPEDSKI KABINET LAPSUS LINGUAE, VL. VEDRANA VOKIĆ","Zavojna ul. 8, 10000, Zagreb",,,45.8210088,15.9050991
16,Logopedski kabinet Rafael,"Lastovska ul. 2A, 10000, Zagreb",logoped-rafael.hr,099 734 6399,45.8210088,15.9050991
17,Logopedski centar Laka riječ,"Ul. kralja Zvonimira 29, 10000, Zagreb",lakarijec.hr,099 545 1137,45.8210088,15.9050991
18,Logo centar Petra Mikuš,"Trg Drage Iblera 9, 10000, Zagreb",,098 524 226,45.8210088,15.9050991
19,Logopedski kabinet Gligora Segedi,"Vrisnička ul. 16, 10000, Zagreb",logopedskikabinet-gligorasegedi.hr,091 588 6677,45.7878985,15.8520669
20,Oković d.o.o.,"Lošinjska ul. 16, 10000, Zagreb",okovic.hr,091 293 0746,45.7878985,15.8520669
21,LOGOS KALOS d.o.o.,"Kamaufova ul. 10, 10000, Zagreb",,01 4664 047,45.8145964,15.9212207
22,Logopedski studio Ritam Riječi,"4 kat, Pete Poljanice 9, 10040, Zagreb",logopedski-studio-ritam-rijeci.hr,091 416 7114,45.8294656,16.0036949
23,Logopedski kabinet Gligora Segedi,"Vrisnička ul. 16, 10000, Zagreb",logopedskikabinet-gligorasegedi.hr,091 588 6677,45.7878985,15.8520669
24,Logopedsko-rehabilitacijski centar ABC,"Zagrebačka cesta 126, 10000, Zagreb",abccentar.com,095 375 3761,45.7878985,15.8520669
25,SISAK LOGOPED,"Masarykova ul., 10000, Zagreb",,091 526 5631,45.8106249,15.9002267
26,"APEX OBRT ZA REHABILITACIJU GOVORA I JEZIKA, VL. MAJA PINTAČ MATIJEVIĆ","Ulica Josipa Sermagea 3, 10000, Zagreb",logoped-apex.hr,,45.8106249,15.9002267
27,Logopedsko rehabilitacijski centar BLAŽI,"IV. kat, Maksimirska Cesta 120, 10000, Zagreb",blazi.hr,098 946 9486,45.8185759,15.9404095
28,ProLogo kabinet,"Ul. Davora Zbiljskog 36, 10000, Zagreb",,098 954 8966,45.8185759,15.9404095
29,LogopedAna,"Ul. Božidara Magovca 107, 10000, Zagreb",business.site,095 362 5750,45.7695751,15.9274117
30,Jezik i govor - Logopedska dijagnostika i terapija,"Vajdin vijenac 2, 10000, Zagreb",,01 6600 156,45.7695751,15.9274117
31,Reci R,"Vinogradska cesta 57, 10000, Zagreb",,01 3768 811,45.8187655,15.8805189
32,Centar za jezik i govor Vrutak,"Ulica Miroslava Kraljevića 6, 10000, Zagreb",,01 2929 140,45.8189195,15.9391894
33,Pričaonica: logopedski kabinet,"Racinova ul. 8, 10000, Zagreb",facebook.com,099 862 1196,45.8189195,15.9391894
34,LogoTip by Ida,"Drenovačka ul. 5, 10000, Zagreb",instagram.com,091 382 1555,45.7982042,15.8852121
35,Logo Puž j.d.o.o.,"Trnsko 12, 10000, Zagreb",,,45.7982042,15.8852121
36,Logopedski kabinet MaLi Ra,"Malešnica 52, 10090, Zagreb",,098 171 3146,45.807486,15.8252945
37,Verbosonic doo,"Podfuščak I 2, 10000, Zagreb",verbosonic.hr,098 256 500,45.8297745,15.8718982
38,Raspetljana priča,"Jarnovićeva 102, 10000, Zagreb",raspetljanaprica.hr,,45.7935222,15.8222787
39,Logoart,"Put Loparica 2a, 10000, Zagreb",,,45.7935222,15.8222787
40,Udruga PRO SANO,"Ozaljska ul. 13, 10000, Zagreb",prosano.hr,098 841 680,45.7994947,15.8794918
41,Poliklinika SUVAG,"Ul. kneza Ljudevita Posavskog 10, 10000, Zagreb",suvag.hr,01 4629 600,45.8073285,15.9210361
42,En-Ten-Tini igraonica,"Koledinečka ul. 5, 10000, Zagreb",ententini.hr,01 2912 347,45.83217,15.9860462
43,Prozorčić,"Avenija Dubrovnik 10, 10000, Zagreb",,098 955 4476,45.7769476,15.9034746
44,VOTUM SEPARATUM d.o.o.,"Zavrtnica 3, 10000, Zagreb",votum-separatum.hr,098 919 0186,45.7769476,15.9034746
45,Korneo Primus d.o.o.,"Trg John F. Kennedy 7, 10000, Zagreb",,091 503 2371,45.8151333,15.9397805
46,Mali Korak - kabinet za rehabilitaciju,"Ul. Nikole Andrića 3, 10000, Zagreb",instagram.com,095 393 9036,45.7671094,15.9124883
47,HRVATSKO LOGOPEDSKO DRUŠTVO,"Borongajska cesta 83/F, 10000, Zagreb",,,45.8108037,15.9677639
48,Logopedski kabinet Igra riječi,"Banatska ul. 4, 10040, Zagreb",igrarijeci.hr,098 137 4428,45.8108037,15.9677639
49,Dado - Udruga za pomoć s poteškoćama u komunikaciji,"Ul. Mate Lovraka 11, 10000, Zagreb",,095 911 7138,45.8108037,15.9677639
50,Logopedsko rehabilitacijski centar Blaži,"Travanjska ul. 2, 10000, Zagreb",blazi.hr,098 995 1247,45.7916356,15.8466884
51,Centar Misli,"Trg Kralja Petra Svačića 4, 10000, Zagreb",centarmisli.hr,091 617 5288,45.8066537,15.9031711
52,"OBRNUTA UČIONICA - logoped, instrukcije svi predmeti - svi razredi, rođendani i proslave","Domašinečka ul. 6, 10090, Zagreb",obrnutaucionica.hr,098 198 5278,45.7939694,15.839067
53,Tara centar d. o. o.,"Črešnjevec 49, 10000, Zagreb",taracentar.hr,01 2301 546,45.8531461,15.9252718
54,LOGODOM,"Omiška ul. 7, 10000, Zagreb",,095 748 4723,45.7934301,15.881264
55,Sonja Oković,"Ul. grada Vukovara 269 d, 10000, Zagreb",okovic.hr,098 944 1995,45.802001,15.9313642
56,Logoglas,,logoglas.hr,091 338 5111,45.6374797,14.8496928
57,"MAŠTA, obrt za čuvanje djece, logoped","Bolnička cesta 81c, 10090, Zagreb",,098 172 6932,45.8160393,15.8194639
58,LOGOLAND d.o.o.,"Ulica Slavoljuba Bulvana 22, 10000, Zagreb",,091 903 9502,45.8165229,15.9565841
59,Edukacijsko-rehabilitacijski fakultet u Zagrebu,"University Campus Borongaj, Borongajska cesta 83f, 10000, Zagreb",erf.unizg.hr,01 2457 500,45.8165229,15.9565841
60,Logosaur,"Ul. Kecerini donji 1, 10000, Zagreb",,091 579 3730,45.8548843,15.8820087
61,Kabinet Meritum,"Ul. Antuna Šoljana 24, 10000, Zagreb",kabinetmeritum.hr,092 507 2822,45.8032249,15.8142912
62,"LOGOTONA OBRT ZA LOGOPEDSKU DJELATNOST, VL. ZRINKA KNJAZ","Rudeška cesta 246, 10110, Zagreb",,,45.8032249,15.8142912
63,Logopedski kabinet Pričalice,"Aleja lipa 1a, 10040, Zagreb",pricalice.com,091 555 3087,45.8275523,15.9942292
